start=new Date('2022-01-07T00:00:00.000Z').valueOf();
sats=[{"LAUNCH_DATE":"2020-01-29","TLE_LINE2":"2 45080  53.0543 262.8871 0002029  57.2732 302.8453 15.06395211107211","TLE_LINE1":"1 45080U 20006AN  22006.85544622 -.00000580  00000-0 -20047-4 0  9993","MEAN_MOTION_DDOT":"0.0000000000000","APOAPSIS":"548.633","FILE":"3265870","MEAN_MOTION_DOT":"-0.00000580","GP_ID":"193352130","OBJECT_NAME":"STARLINK-1153","MEAN_ANOMALY":"302.8453","PERIAPSIS":"545.823","EPHEMERIS_TYPE":"0","SITE":"AFETR","ELEMENT_SET_NO":"999","CENTER_NAME":"EARTH","DECAY_DATE":null,"INCLINATION":"53.0543","MEAN_ELEMENT_THEORY":"SGP4","OBJECT_ID":"2020-006AN","RCS_SIZE":"LARGE","REV_AT_EPOCH":"10721","ARG_OF_PERICENTER":"57.2732","NORAD_CAT_ID":"45080","EPOCH":"2022-01-06T20:31:50.553408","BSTAR":"-0.00002004700000","RA_OF_ASC_NODE":"262.8871","REF_FRAME":"TEME","SEMIMAJOR_AXIS":"6925.363","COUNTRY_CODE":"US","MEAN_MOTION":"15.06395211","ECCENTRICITY":"0.00020290","OBJECT_TYPE":"PAYLOAD","CLASSIFICATION_TYPE":"U","TIME_SYSTEM":"UTC","PERIOD":"95.592"},{"TIME_SYSTEM":"UTC","PERIOD":"95.592","CLASSIFICATION_TYPE":"U","ECCENTRICITY":"0.00020940","OBJECT_TYPE":"PAYLOAD","REF_FRAME":"TEME","SEMIMAJOR_AXIS":"6925.347","MEAN_MOTION":"15.06400549","COUNTRY_CODE":"US","EPOCH":"2022-01-06T21:35:31.546752","BSTAR":"0.00007473200000","RA_OF_ASC_NODE":"262.7023","ARG_OF_PERICENTER":"56.2146","NORAD_CAT_ID":"45081","REV_AT_EPOCH":"10722","RCS_SIZE":"LARGE","OBJECT_ID":"2020-006AP","INCLINATION":"53.0553","MEAN_ELEMENT_THEORY":"SGP4","DECAY_DATE":null,"SITE":"AFETR","ELEMENT_SET_NO":"999","CENTER_NAME":"EARTH","EPHEMERIS_TYPE":"0","MEAN_ANOMALY":"303.9042","PERIAPSIS":"545.762","OBJECT_NAME":"STARLINK-1151","MEAN_MOTION_DOT":"0.00000832","GP_ID":"193352381","FILE":"3265870","APOAPSIS":"548.662","MEAN_MOTION_DDOT":"0.0000000000000","TLE_LINE1":"1 45081U 20006AP  22006.89967068  .00000832  00000-0  74732-4 0  9999","TLE_LINE2":"2 45081  53.0553 262.7023 0002094  56.2146 303.9042 15.06400549107229","LAUNCH_DATE":"2020-01-29"},{"TLE_LINE2":"2 45082  53.0523 262.7310 0001926  58.2023 301.9154 15.06389187107210","TLE_LINE1":"1 45082U 20006AQ  22006.88862860 -.00000210  00000-0  48343-5 0  9994","LAUNCH_DATE":"2020-01-29","GP_ID":"193353132","MEAN_MOTION_DOT":"-0.00000210","PERIAPSIS":"545.913","MEAN_ANOMALY":"301.9154","OBJECT_NAME":"STARLINK-1160","FILE":"3265870","APOAPSIS":"548.581","MEAN_MOTION_DDOT":"0.0000000000000","OBJECT_ID":"2020-006AQ","SITE":"AFETR","CENTER_NAME":"EARTH","ELEMENT_SET_NO":"999","EPHEMERIS_TYPE":"0","MEAN_ELEMENT_THEORY":"SGP4","INCLINATION":"53.0523","DECAY_DATE":null,"OBJECT_TYPE":"PAYLOAD","ECCENTRICITY":"0.00019260","COUNTRY_CODE":"US","MEAN_MOTION":"15.06389187","SEMIMAJOR_AXIS":"6925.382","REF_FRAME":"TEME","PERIOD":"95.593","TIME_SYSTEM":"UTC","CLASSIFICATION_TYPE":"U","REV_AT_EPOCH":"10721","RCS_SIZE":"LARGE","RA_OF_ASC_NODE":"262.7310","BSTAR":"0.00000483430000","EPOCH":"2022-01-06T21:19:37.511040","NORAD_CAT_ID":"45082","ARG_OF_PERICENTER":"58.2023"},{"DECAY_DATE":null,"MEAN_ELEMENT_THEORY":"SGP4","INCLINATION":"53.0553","EPHEMERIS_TYPE":"0","ELEMENT_SET_NO":"999","SITE":"AFETR","CENTER_NAME":"EARTH","OBJECT_ID":"2020-006AR","NORAD_CAT_ID":"45083","ARG_OF_PERICENTER":"59.1431","BSTAR":"0.00000293040000","RA_OF_ASC_NODE":"282.6059","EPOCH":"2022-01-06T22:04:43.857120","RCS_SIZE":"LARGE","REV_AT_EPOCH":"10694","CLASSIFICATION_TYPE":"U","PERIOD":"95.593","TIME_SYSTEM":"UTC","COUNTRY_CODE":"US","MEAN_MOTION":"15.06393557","REF_FRAME":"TEME","SEMIMAJOR_AXIS":"6925.368","OBJECT_TYPE":"PAYLOAD","ECCENTRICITY":"0.00020580","LAUNCH_DATE":"2020-01-29","TLE_LINE1":"1 45083U 20006AR  22006.91995205 -.00000238  00000-0  29304-5 0  9995","TLE_LINE2":"2 45083  53.0553 282.6059 0002058  59.1431 300.9760 15.06393557106942","MEAN_MOTION_DDOT":"0.0000000000000","FILE":"3265870","APOAPSIS":"548.659","OBJECT_NAME":"STARLINK-1190","MEAN_ANOMALY":"300.9760","PERIAPSIS":"545.808","GP_ID":"193351380","MEAN_MOTION_DOT":"-0.00000238"},{"PERIOD":"95.593","TIME_SYSTEM":"UTC","CLASSIFICATION_TYPE":"U","OBJECT_TYPE":"PAYLOAD","ECCENTRICITY":"0.00021420","COUNTRY_CODE":"US","MEAN_MOTION":"15.06387238","SEMIMAJOR_AXIS":"6925.388","REF_FRAME":"TEME","BSTAR":"-0.00003737400000","RA_OF_ASC_NODE":"242.6819","EPOCH":"2022-01-06T21:38:12.231744","NORAD_CAT_ID":"45084","ARG_OF_PERICENTER":"59.1654","REV_AT_EPOCH":"10750","RCS_SIZE":"LARGE","OBJECT_ID":"2020-006AS","MEAN_ELEMENT_THEORY":"SGP4","INCLINATION":"53.0542","DECAY_DATE":null,"CENTER_NAME":"EARTH","SITE":"AFETR","ELEMENT_SET_NO":"999","EPHEMERIS_TYPE":"0","PERIAPSIS":"545.769","MEAN_ANOMALY":"300.9545","OBJECT_NAME":"STARLINK-1173","GP_ID":"193351630","MEAN_MOTION_DOT":"-0.00000838","APOAPSIS":"548.736","FILE":"3265870","MEAN_MOTION_DDOT":"0.0000000000000","TLE_LINE1":"1 45084U 20006AS  22006.90153046 -.00000838  00000-0 -37374-4 0  9996","TLE_LINE2":"2 45084  53.0542 242.6819 0002142  59.1654 300.9545 15.06387238107505","LAUNCH_DATE":"2020-01-29"},{"LAUNCH_DATE":"2020-01-29","TLE_LINE1":"1 45085U 20006AT  22006.89783841  .00001532  00000-0  12172-3 0  9995","TLE_LINE2":"2 45085  53.0537 242.6877 0002142  60.9148 299.2055 15.06395988107509","MEAN_MOTION_DDOT":"0.0000000000000","FILE":"3265870","APOAPSIS":"548.709","OBJECT_NAME":"STARLINK-1179","MEAN_ANOMALY":"299.2055","PERIAPSIS":"545.742","MEAN_MOTION_DOT":"0.00001532","GP_ID":"193352882","DECAY_DATE":null,"INCLINATION":"53.0537","MEAN_ELEMENT_THEORY":"SGP4","EPHEMERIS_TYPE":"0","SITE":"AFETR","CENTER_NAME":"EARTH","ELEMENT_SET_NO":"999","OBJECT_ID":"2020-006AT","ARG_OF_PERICENTER":"60.9148","NORAD_CAT_ID":"45085","EPOCH":"2022-01-06T21:32:53.238624","RA_OF_ASC_NODE":"242.6877","BSTAR":"0.00012172000000","RCS_SIZE":"LARGE","REV_AT_EPOCH":"10750","CLASSIFICATION_TYPE":"U","TIME_SYSTEM":"UTC","PERIOD":"95.592","REF_FRAME":"TEME","SEMIMAJOR_AXIS":"6925.361","MEAN_MOTION":"15.06395988","COUNTRY_CODE":"US","ECCENTRICITY":"0.00021420","OBJECT_TYPE":"PAYLOAD"},{"GP_ID":"193352632","MEAN_MOTION_DOT":"0.00001657","PERIAPSIS":"542.046","MEAN_ANOMALY":"281.2803","OBJECT_NAME":"STARLINK-1181","APOAPSIS":"544.564","FILE":"3265870","MEAN_MOTION_DDOT":"0.0000000000000","TLE_LINE2":"2 45086  53.0028 239.8463 0001819  78.8390 281.2803 15.07676193107436","TLE_LINE1":"1 45086U 20006AU  22006.88861489  .00001657  00000-0  12592-3 0  9994","LAUNCH_DATE":"2020-01-29","OBJECT_TYPE":"PAYLOAD","ECCENTRICITY":"0.00018190","MEAN_MOTION":"15.07676193","COUNTRY_CODE":"US","SEMIMAJOR_AXIS":"6921.440","REF_FRAME":"TEME","PERIOD":"95.511","TIME_SYSTEM":"UTC","CLASSIFICATION_TYPE":"U","REV_AT_EPOCH":"10743","RCS_SIZE":"LARGE","RA_OF_ASC_NODE":"239.8463","BSTAR":"0.00012592000000","EPOCH":"2022-01-06T21:19:36.326496","NORAD_CAT_ID":"45086","ARG_OF_PERICENTER":"78.8390","OBJECT_ID":"2020-006AU","SITE":"AFETR","ELEMENT_SET_NO":"999","CENTER_NAME":"EARTH","EPHEMERIS_TYPE":"0","MEAN_ELEMENT_THEORY":"SGP4","INCLINATION":"53.0028","DECAY_DATE":null},{"OBJECT_NAME":"STARLINK-1185","PERIAPSIS":"545.746","MEAN_ANOMALY":"295.5663","MEAN_MOTION_DOT":"0.00000820","GP_ID":"193351881","MEAN_MOTION_DDOT":"0.0000000000000","APOAPSIS":"548.710","FILE":"3265870","TLE_LINE1":"1 45087U 20006AV  22006.88308936  .00000820  00000-0  73963-4 0  9999","TLE_LINE2":"2 45087  53.0540 242.7558 0002140  64.5548 295.5663 15.06395237107505","LAUNCH_DATE":"2020-01-29","CLASSIFICATION_TYPE":"U","TIME_SYSTEM":"UTC","PERIOD":"95.592","SEMIMAJOR_AXIS":"6925.363","REF_FRAME":"TEME","MEAN_MOTION":"15.06395237","COUNTRY_CODE":"US","ECCENTRICITY":"0.00021400","OBJECT_TYPE":"PAYLOAD","ARG_OF_PERICENTER":"64.5548","NORAD_CAT_ID":"45087","EPOCH":"2022-01-06T21:11:38.920704","RA_OF_ASC_NODE":"242.7558","BSTAR":"0.00007396300000","RCS_SIZE":"LARGE","REV_AT_EPOCH":"10750","OBJECT_ID":"2020-006AV","DECAY_DATE":null,"INCLINATION":"53.0540","MEAN_ELEMENT_THEORY":"SGP4","EPHEMERIS_TYPE":"0","SITE":"AFETR","CENTER_NAME":"EARTH","ELEMENT_SET_NO":"999"},{"CLASSIFICATION_TYPE":"U","TIME_SYSTEM":"UTC","PERIOD":"95.593","SEMIMAJOR_AXIS":"6925.373","REF_FRAME":"TEME","COUNTRY_CODE":"US","MEAN_MOTION":"15.06392109","ECCENTRICITY":"0.00021420","OBJECT_TYPE":"PAYLOAD","ARG_OF_PERICENTER":"64.5423","NORAD_CAT_ID":"45088","EPOCH":"2022-01-06T21:43:30.561312","RA_OF_ASC_NODE":"242.6755","BSTAR":"-0.00002513900000","RCS_SIZE":"LARGE","REV_AT_EPOCH":"10750","OBJECT_ID":"2020-006AW","DECAY_DATE":null,"INCLINATION":"53.0542","MEAN_ELEMENT_THEORY":"SGP4","EPHEMERIS_TYPE":"0","CENTER_NAME":"EARTH","SITE":"AFETR","ELEMENT_SET_NO":"999","OBJECT_NAME":"STARLINK-1183","PERIAPSIS":"545.754","MEAN_ANOMALY":"295.5788","MEAN_MOTION_DOT":"-0.00000656","GP_ID":"193352131","MEAN_MOTION_DDOT":"0.0000000000000","FILE":"3265870","APOAPSIS":"548.721","TLE_LINE1":"1 45088U 20006AW  22006.90521483 -.00000656  00000-0 -25139-4 0  9998","TLE_LINE2":"2 45088  53.0542 242.6755 0002142  64.5423 295.5788 15.06392109107503","LAUNCH_DATE":"2020-01-29"},{"ECCENTRICITY":"0.00019170","OBJECT_TYPE":"PAYLOAD","SEMIMAJOR_AXIS":"6925.377","REF_FRAME":"TEME","COUNTRY_CODE":"US","MEAN_MOTION":"15.06390811","TIME_SYSTEM":"UTC","PERIOD":"95.593","CLASSIFICATION_TYPE":"U","REV_AT_EPOCH":"10751","RCS_SIZE":"LARGE","EPOCH":"2022-01-06T21:42:08.839872","RA_OF_ASC_NODE":"242.6321","BSTAR":"0.00002728400000","ARG_OF_PERICENTER":"60.4391","NORAD_CAT_ID":"45089","OBJECT_ID":"2020-006AX","ELEMENT_SET_NO":"999","SITE":"AFETR","CENTER_NAME":"EARTH","EPHEMERIS_TYPE":"0","INCLINATION":"53.0570","MEAN_ELEMENT_THEORY":"SGP4","DECAY_DATE":null,"MEAN_MOTION_DOT":"0.00000125","GP_ID":"193352382","PERIAPSIS":"545.914","MEAN_ANOMALY":"299.6789","OBJECT_NAME":"STARLINK-1136","FILE":"3265870","APOAPSIS":"548.569","MEAN_MOTION_DDOT":"0.0000000000000","TLE_LINE2":"2 45089  53.0570 242.6321 0001917  60.4391 299.6789 15.06390811107517","TLE_LINE1":"1 45089U 20006AX  22006.90426898  .00000125  00000-0  27284-4 0  9995","LAUNCH_DATE":"2020-01-29"}];
